FLOCK 4BE-29            
1 60509U 24149AT  26065.21863815  .00025551  00000+0  63576-3 0  9990
2 60509  97.3848 149.8126 0001951 310.1031  50.0044 15.40257896 86540
TRANSPORTER-11 OBJECT AU
1 60510U 24149AU  26065.17919915  .00017133  00000+0  47376-3 0  9997
2 60510  97.3776 148.2965 0002553 306.9337  53.1673 15.37086680 86478
FLOCK 4BE-2             
1 60511U 24149AV  26065.19242065  .00044659  00000+0  10165-2 0  9993
2 60511  97.3854 150.3506 0002779 286.1155  73.9786 15.42828947 86570
FLOCK 4BE-13            
1 60512U 24149AW  26065.19467357  .00020167  00000+0  52944-3 0  9997
2 60512  97.3766 148.7545 0003423 282.3434  77.7428 15.38659812 86519
FLOCK 4BE-27            
1 60513U 24149AX  26065.22756385  .00012417  00000+0  39795-3 0  9992
2 60513  97.3870 147.1582 0002808 323.4674  36.6376 15.32496893 86360
FLOCK 4BE-9             
1 60514U 24149AY  26065.17732883  .00017822  00000+0  48724-3 0  9991
2 60514  97.3832 148.6883 0001548 316.8578  43.2545 15.37434715 86472
FLOCK 4BE-8             
1 60515U 24149AZ  26065.17838677  .00297083  00000+0  18106-2 0  9999
2 60515  97.3666 151.7507 0004594 241.8912 118.1889 15.76582708 86707
FLOCK 4BE-6             
1 60516U 24149BA  26065.19879826  .00016596  00000+0  46807-3 0  9991
2 60516  97.3838 148.2402 0002307 310.1409  49.9633 15.36478486 86447
FLOCK 4BE-14            
1 60517U 24149BB  26065.19981008  .00019297  00000+0  52566-3 0  9998
2 60517  97.3749 148.3121 0003276 306.2436  53.8505 15.37526499 86485
FLOCK 4BE-1             
1 60518U 24149BC  26065.18429617  .00020248  00000+0  52924-3 0  9997
2 60518  97.3824 149.2306 0003268 301.8780  58.2147 15.38793321 86515
FLOCK 4BE-28            
1 60519U 24149BD  26065.21518838  .00025287  00000+0  61770-3 0  9993
2 60519  97.3789 149.6870 0003537 301.5859  58.5042 15.40816466 86560
IPERDRONE.0             
1 60520U 24149BE  26065.23904573  .00052314  00000+0  79946-3 0  9997
2 60520  97.3820 154.3885 0002875 246.2157 113.8795 15.54245674 86862
TRANSPORTER-11 OBJECT BF
1 60521U 24149BF  26065.24369989  .00074799  00000+0  94249-3 0  9999
2 60521  97.3828 155.5789 0003186 247.2234 112.8686 15.59370463 86936
CONNECTA IOT-2          
1 60522U 24149BG  26065.19350630  .00005910  00000+0  25444-3 0  9997
2 60522  97.3896 144.9510 0005612 340.1320  19.9697 15.22969176 86216
PTD-R (TYVAK-0127)      
1 60523U 24149BH  26065.24229258  .00138219  00000+0  12052-2 0  9994
2 60523  97.3774 158.3082 0004065 254.9216 105.1595 15.68549421 87136
CONNECTA IOT-4          
1 60524U 24149BJ  26065.17004627  .00018644  00000+0  49580-3 0  9994
2 60524  97.3842 148.6069 0004748 303.2345  56.8445 15.38272544 86477
